{
  "type": "FeatureCollection",
  "features": [
    {
      "type": "Feature",
      "properties": {
        "norad_id": 19071,
        "name": "OSCAR 32",
        "group": "nnss",
        "lat": -17.45103154175703,
        "lon": 16.617968922334256,
        "alt_km": 1300.7387569549755,
        "timestamp": "2025-12-12T11:38:31.680613+00:00",
        "meta_object_name": "OSCAR 32",
        "meta_object_id": "1988-033B",
        "meta_epoch": "2025-12-12T03:03:00.403200",
        "meta_mean_motion": 13.27953837,
        "meta_eccentricity": 0.0188302,
        "meta_inclination": 90.3217,
        "meta_ra_of_asc_node": 16.5056,
        "meta_arg_of_pericenter": 168.4945,
        "meta_mean_anomaly": 263.5055,
        "meta_ephemeris_type": 0,
        "meta_classification_type": "U",
        "meta_norad_cat_id": 19071,
        "meta_element_set_no": 999,
        "meta_rev_at_epoch": 82257,
        "meta_bstar": 0.00014197,
        "meta_mean_motion_dot": 8e-07,
        "meta_mean_motion_ddot": 0,
        "tle_line1": "1 19071U 88033B   25346.12708800  .00000080  00000+0  14197-3 0  9998",
        "tle_line2": "2 19071  90.3217  16.5056 0188302 168.4945 263.5055 13.27953837822572"
      },
      "geometry": {
        "type": "Point",
        "coordinates": [
          16.617968922334256,
          -17.45103154175703
        ]
      }
    },
    {
      "type": "Feature",
      "properties": {
        "norad_id": 19223,
        "name": "NOVA 2",
        "group": "nnss",
        "lat": -4.4911533169965,
        "lon": -101.72625470928101,
        "alt_km": 1199.5547177566868,
        "timestamp": "2025-12-12T11:38:31.680623+00:00",
        "meta_object_name": "NOVA 2",
        "meta_object_id": "1988-052A",
        "meta_epoch": "2025-12-11T20:48:30.108096",
        "meta_mean_motion": 13.22935796,
        "meta_eccentricity": 0.0030666,
        "meta_inclination": 89.9872,
        "meta_ra_of_asc_node": 78.2735,
        "meta_arg_of_pericenter": 19.2883,
        "meta_mean_anomaly": 103.0937,
        "meta_ephemeris_type": 0,
        "meta_classification_type": "U",
        "meta_norad_cat_id": 19223,
        "meta_element_set_no": 999,
        "meta_rev_at_epoch": 80936,
        "meta_bstar": 0.00020974,
        "meta_mean_motion_dot": 9.7e-07,
        "meta_mean_motion_ddot": 0,
        "tle_line1": "1 19223U 88052A   25345.86701514  .00000097  00000+0  20974-3 0  9991",
        "tle_line2": "2 19223  89.9872  78.2735 0030666  19.2883 103.0937 13.22935796809362"
      },
      "geometry": {
        "type": "Point",
        "coordinates": [
          -101.72625470928101,
          -4.4911533169965
        ]
      }
    },
    {
      "type": "Feature",
      "properties": {
        "norad_id": 19419,
        "name": "OSCAR 25",
        "group": "nnss",
        "lat": -62.445536152673114,
        "lon": -159.82327462190582,
        "alt_km": 1036.3536088226274,
        "timestamp": "2025-12-12T11:38:31.680634+00:00",
        "meta_object_name": "OSCAR 25",
        "meta_object_id": "1988-074A",
        "meta_epoch": "2025-12-12T03:36:13.830048",
        "meta_mean_motion": 13.42623104,
        "meta_eccentricity": 0.009443,
        "meta_inclination": 90.0348,
        "meta_ra_of_asc_node": 20.2423,
        "meta_arg_of_pericenter": 247.5604,
        "meta_mean_anomaly": 177.0027,
        "meta_ephemeris_type": 0,
        "meta_classification_type": "U",
        "meta_norad_cat_id": 19419,
        "meta_element_set_no": 999,
        "meta_rev_at_epoch": 82632,
        "meta_bstar": 0.00019774,
        "meta_mean_motion_dot": 1.23e-06,
        "meta_mean_motion_ddot": 0,
        "tle_line1": "1 19419U 88074A   25346.15016007  .00000123  00000+0  19774-3 0  9997",
        "tle_line2": "2 19419  90.0348  20.2423 0094430 247.5604 177.0027 13.42623104826322"
      },
      "geometry": {
        "type": "Point",
        "coordinates": [
          -159.82327462190582,
          -62.445536152673114
        ]
      }
    },
    {
      "type": "Feature",
      "properties": {
        "norad_id": 19420,
        "name": "OSCAR 31",
        "group": "nnss",
        "lat": 54.62786765337478,
        "lon": -159.35527287974156,
        "alt_km": 1123.7470367993283,
        "timestamp": "2025-12-12T11:38:31.680644+00:00",
        "meta_object_name": "OSCAR 31",
        "meta_object_id": "1988-074B",
        "meta_epoch": "2025-12-12T04:11:40.444224",
        "meta_mean_motion": 13.42584529,
        "meta_eccentricity": 0.009271,
        "meta_inclination": 90.0364,
        "meta_ra_of_asc_node": 20.5923,
        "meta_arg_of_pericenter": 241.5752,
        "meta_mean_anomaly": 185.7364,
        "meta_ephemeris_type": 0,
        "meta_classification_type": "U",
        "meta_norad_cat_id": 19420,
        "meta_element_set_no": 999,
        "meta_rev_at_epoch": 82643,
        "meta_bstar": 0.0001915,
        "meta_mean_motion_dot": 1.2e-06,
        "meta_mean_motion_ddot": 0,
        "tle_line1": "1 19420U 88074B   25346.17477366  .00000120  00000+0  19150-3 0  9995",
        "tle_line2": "2 19420  90.0364  20.5923 0092710 241.5752 185.7364 13.42584529826436"
      },
      "geometry": {
        "type": "Point",
        "coordinates": [
          -159.35527287974156,
          54.62786765337478
        ]
      }
    }
  ]
}